{
    "links": {
        "self": "http://www.neowsapp.com/rest/v1/neo/54053822?api_key=iIulBulltgU6a56xZRHN4H3l9WmuAYTsLGpBGhQ2"
    },
    "id": "54053822",
    "neo_reference_id": "54053822",
    "name": "(2020 RE2)",
    "designation": "2020 RE2",
    "nasa_jpl_url": "http://ssd.jpl.nasa.gov/sbdb.cgi?sstr=54053822",
    "absolute_magnitude_h": 25.593,
    "estimated_diameter": {
        "kilometers": {
            "estimated_diameter_min": 0.0202280946,
            "estimated_diameter_max": 0.0452313946
        },
        "meters": {
            "estimated_diameter_min": 20.2280946276,
            "estimated_diameter_max": 45.2313946426
        },
        "miles": {
            "estimated_diameter_min": 0.0125691514,
            "estimated_diameter_max": 0.0281054769
        },
        "feet": {
            "estimated_diameter_min": 66.3651419779,
            "estimated_diameter_max": 148.3969687991
        }
    },
    "is_potentially_hazardous_asteroid": false,
    "close_approach_data": [
        {
            "close_approach_date": "1964-09-15",
            "close_approach_date_full": "1964-Sep-15 06:32",
            "epoch_date_close_approach": -167074080000,
            "relative_velocity": {
                "kilometers_per_second": "23.723574495",
                "kilometers_per_hour": "85404.8681821433",
                "miles_per_hour": "53067.2637879545"
            },
            "miss_distance": {
                "astronomical": "0.1386574195",
                "lunar": "53.9377361855",
                "kilometers": "20742854.616896465",
                "miles": "12889012.187502617"
            },
            "orbiting_body": "Earth"
        },
        {
            "close_approach_date": "2015-03-19",
            "close_approach_date_full": "2015-Mar-19 07:19",
            "epoch_date_close_approach": 1426749540000,
            "relative_velocity": {
                "kilometers_per_second": "15.2814100904",
                "kilometers_per_hour": "55013.0763254404",
                "miles_per_hour": "34182.986231216"
            },
            "miss_distance": {
                "astronomical": "0.460579268",
                "lunar": "179.165335252",
                "kilometers": "68901677.45895916",
                "miles": "42813517.083830008"
            },
            "orbiting_body": "Earth"
        },
        {
            "close_approach_date": "2020-09-09",
            "close_approach_date_full": "2020-Sep-09 02:12",
            "epoch_date_close_approach": 1599617520000,
            "relative_velocity": {
                "kilometers_per_second": "20.7734119276",
                "kilometers_per_hour": "74784.2829391879",
                "miles_per_hour": "46468.0451407415"
            },
            "miss_distance": {
                "astronomical": "0.012801933",
                "lunar": "4.979951937",
                "kilometers": "1915141.90868271",
                "miles": "1190014.000372998"
            },
            "orbiting_body": "Earth"
        },
        {
            "close_approach_date": "2027-03-06",
            "close_approach_date_full": "2027-Mar-06 17:59",
            "epoch_date_close_approach": 1804355940000,
            "relative_velocity": {
                "kilometers_per_second": "28.2765322294",
                "kilometers_per_hour": "101795.5160259325",
                "miles_per_hour": "63251.7749440023"
            },
            "miss_distance": {
                "astronomical": "0.3597731054",
                "lunar": "139.9517380006",
                "kilometers": "53821290.251125498",
                "miles": "33442998.9895799524"
            },
            "orbiting_body": "Earth"
        }
    ],
    "orbital_data": {
        "orbit_id": "2",
        "orbit_determination_date": "2020-09-14 06:55:25",
        "first_observation_date": "2020-09-10",
        "last_observation_date": "2020-09-11",
        "data_arc_in_days": 1,
        "observations_used": 49,
        "orbit_uncertainty": "8",
        "minimum_orbit_intersection": ".012764",
        "jupiter_tisserand_invariant": "4.455",
        "epoch_osculation": "2459103.5",
        "eccentricity": ".4757882883950903",
        "semi_major_axis": "1.422417107580584",
        "inclination": "29.90686728809288",
        "ascending_node_longitude": "347.4773072458618",
        "orbital_period": "619.6391896703559",
        "perihelion_distance": ".7456477065809226",
        "perihelion_argument": "278.999904180294",
        "aphelion_distance": "2.099186508580245",
        "perihelion_time": "2459047.624601118824",
        "mean_anomaly": "32.46267171694625",
        "mean_motion": ".5809832657477938",
        "equinox": "J2000",
        "orbit_class": {
            "orbit_class_type": "APO",
            "orbit_class_description": "Near-Earth asteroid orbits which cross the Earth’s orbit similar to that of 1862 Apollo",
            "orbit_class_range": "a (semi-major axis) > 1.0 AU; q (perihelion) < 1.017 AU"
        }
    },
    "is_sentry_object": false
}